{"type":"FeatureCollection","features":[{"type":"Feature","id":1,"properties":{"id":"senkaku","kind":"dispute-marker","name":"Senkaku / Diaoyu / Diaoyutai","bilingual":"尖閣諸島 / 釣魚島 / 釣魚臺","claimants":["Japan (日本)","People's Republic of China (中国)","Republic of China / Taiwan (中華民國)"],"controller":"Japan (de facto administration since 1972)","note":"An uninhabited island group in the East China Sea. Japan has administered them since 1972 and considers them part of Okinawa; the People's Republic of China and the Republic of China (Taiwan) both claim them on historical and geographic grounds. Status disputed.","recognition":null,"start_year":1972,"end_year":2100},"geometry":{"type":"Point","coordinates":[123.47,25.74]}},{"type":"Feature","id":2,"properties":{"id":"spratly","kind":"dispute-marker","name":"Spratly Islands (disputed)","bilingual":"南沙群島 / Quần đảo Trường Sa / Kapuluan ng Kalayaan","claimants":["China (中国)","Taiwan (中華民國)","Vietnam (Việt Nam)","Philippines (Pilipinas)","Malaysia","Brunei"],"controller":"Multiple (occupied per-feature)","note":"A disputed archipelago of reefs and islets in the South China Sea, subject to overlapping claims by China and Taiwan (via the nine-dash line), Vietnam, the Philippines, Malaysia and Brunei. Individual features are occupied by different claimants. Status disputed.","recognition":null,"start_year":1947,"end_year":2100},"geometry":{"type":"Point","coordinates":[114.3,9.7]}},{"type":"Feature","id":3,"properties":{"id":"paracel","kind":"dispute-marker","name":"Paracel Islands (disputed)","bilingual":"西沙群島 / Quần đảo Hoàng Sa / Paracel Islands","claimants":["China (中国)","Taiwan (中華民國)","Vietnam (Việt Nam)"],"controller":"China (de facto since 1974)","note":"A disputed island group in the South China Sea, under Chinese de facto control since 1974, also claimed by Vietnam and Taiwan. Status disputed.","recognition":null,"start_year":1947,"end_year":2100},"geometry":{"type":"Point","coordinates":[112,16.5]}}]}