{"type":"FeatureCollection","features":[{"type":"Feature","id":1,"geometry":{"type":"Point","coordinates":[-28,38]},"properties":{"name":"Atlantic Ocean","kind":"sea"}},{"type":"Feature","id":2,"geometry":{"type":"Point","coordinates":[17,35.2]},"properties":{"name":"Mediterranean Sea","kind":"sea"}},{"type":"Feature","id":3,"geometry":{"type":"Point","coordinates":[34,43.3]},"properties":{"name":"Black Sea","kind":"sea"}},{"type":"Feature","id":4,"geometry":{"type":"Point","coordinates":[50.5,41.5]},"properties":{"name":"Caspian Sea","kind":"sea"}},{"type":"Feature","id":5,"geometry":{"type":"Point","coordinates":[38,20]},"properties":{"name":"Red Sea","kind":"sea"}},{"type":"Feature","id":6,"geometry":{"type":"Point","coordinates":[63,15]},"properties":{"name":"Arabian Sea","kind":"sea"}},{"type":"Feature","id":7,"geometry":{"type":"Point","coordinates":[88,13]},"properties":{"name":"Bay of Bengal","kind":"sea"}},{"type":"Feature","id":8,"geometry":{"type":"Point","coordinates":[113,13]},"properties":{"name":"South China Sea","kind":"sea"}},{"type":"Feature","id":9,"geometry":{"type":"Point","coordinates":[75,-10]},"properties":{"name":"Indian Ocean","kind":"sea"}},{"type":"Feature","id":10,"geometry":{"type":"Point","coordinates":[3.5,56.5]},"properties":{"name":"North Sea","kind":"sea"}},{"type":"Feature","id":11,"geometry":{"type":"Point","coordinates":[19.5,57.5]},"properties":{"name":"Baltic Sea","kind":"sea"}},{"type":"Feature","id":12,"geometry":{"type":"Point","coordinates":[15.6,42.6]},"properties":{"name":"Adriatic Sea","kind":"sea"}},{"type":"Feature","id":13,"geometry":{"type":"Point","coordinates":[25.2,38.6]},"properties":{"name":"Aegean Sea","kind":"sea"}},{"type":"Feature","id":14,"geometry":{"type":"Point","coordinates":[9.5,46.4]},"properties":{"name":"Alps","kind":"range"}},{"type":"Feature","id":15,"geometry":{"type":"Point","coordinates":[0.8,42.7]},"properties":{"name":"Pyrenees","kind":"range"}},{"type":"Feature","id":16,"geometry":{"type":"Point","coordinates":[24.5,47.5]},"properties":{"name":"Carpathians","kind":"range"}},{"type":"Feature","id":17,"geometry":{"type":"Point","coordinates":[44,42.8]},"properties":{"name":"Caucasus","kind":"range"}},{"type":"Feature","id":18,"geometry":{"type":"Point","coordinates":[47.5,33.5]},"properties":{"name":"Zagros","kind":"range"}},{"type":"Feature","id":19,"geometry":{"type":"Point","coordinates":[70,35.8]},"properties":{"name":"Hindu Kush","kind":"range"}},{"type":"Feature","id":20,"geometry":{"type":"Point","coordinates":[80,42]},"properties":{"name":"Tian Shan","kind":"range"}},{"type":"Feature","id":21,"geometry":{"type":"Point","coordinates":[84,28.7]},"properties":{"name":"Himalaya","kind":"range"}},{"type":"Feature","id":22,"geometry":{"type":"Point","coordinates":[59,58]},"properties":{"name":"Ural Mountains","kind":"range"}},{"type":"Feature","id":23,"geometry":{"type":"Point","coordinates":[-5.5,32.5]},"properties":{"name":"Atlas Mountains","kind":"range"}},{"type":"Feature","id":24,"geometry":{"type":"Point","coordinates":[8,23]},"properties":{"name":"Sahara","kind":"desert"}},{"type":"Feature","id":25,"geometry":{"type":"Point","coordinates":[45,24.5]},"properties":{"name":"Arabian Desert","kind":"desert"}},{"type":"Feature","id":26,"geometry":{"type":"Point","coordinates":[105,43.5]},"properties":{"name":"Gobi","kind":"desert"}},{"type":"Feature","id":27,"geometry":{"type":"Point","coordinates":[82,39]},"properties":{"name":"Taklamakan","kind":"desert"}},{"type":"Feature","id":28,"geometry":{"type":"Point","coordinates":[-150,10]},"properties":{"name":"Pacific Ocean","kind":"sea"}},{"type":"Feature","id":29,"geometry":{"type":"Point","coordinates":[-75,15]},"properties":{"name":"Caribbean Sea","kind":"sea"}},{"type":"Feature","id":30,"geometry":{"type":"Point","coordinates":[-90,25]},"properties":{"name":"Gulf of Mexico","kind":"sea"}},{"type":"Feature","id":31,"geometry":{"type":"Point","coordinates":[134.5,40]},"properties":{"name":"Sea of Japan","kind":"sea"}},{"type":"Feature","id":32,"geometry":{"type":"Point","coordinates":[125,29]},"properties":{"name":"East China Sea","kind":"sea"}},{"type":"Feature","id":33,"geometry":{"type":"Point","coordinates":[51,27]},"properties":{"name":"Persian Gulf","kind":"sea"}},{"type":"Feature","id":34,"geometry":{"type":"Point","coordinates":[-70,-20]},"properties":{"name":"Andes","kind":"range"}},{"type":"Feature","id":35,"geometry":{"type":"Point","coordinates":[-110,45]},"properties":{"name":"Rocky Mountains","kind":"range"}},{"type":"Feature","id":36,"geometry":{"type":"Point","coordinates":[-80,38]},"properties":{"name":"Appalachians","kind":"range"}},{"type":"Feature","id":37,"geometry":{"type":"Point","coordinates":[38.5,9.5]},"properties":{"name":"Ethiopian Highlands","kind":"range"}},{"type":"Feature","id":38,"geometry":{"type":"Point","coordinates":[88,48.5]},"properties":{"name":"Altai","kind":"range"}},{"type":"Feature","id":39,"geometry":{"type":"Point","coordinates":[84,36]},"properties":{"name":"Kunlun","kind":"range"}},{"type":"Feature","id":40,"geometry":{"type":"Point","coordinates":[74.5,14]},"properties":{"name":"Western Ghats","kind":"range"}},{"type":"Feature","id":41,"geometry":{"type":"Point","coordinates":[22,-23]},"properties":{"name":"Kalahari","kind":"desert"}},{"type":"Feature","id":42,"geometry":{"type":"Point","coordinates":[-63,-4]},"properties":{"name":"Amazon Basin","kind":"desert"}},{"type":"Feature","id":43,"geometry":{"type":"Point","coordinates":[-100,41]},"properties":{"name":"Great Plains","kind":"desert"}},{"type":"Feature","id":44,"geometry":{"type":"Point","coordinates":[100,62]},"properties":{"name":"Siberia","kind":"desert"}},{"type":"Feature","id":45,"geometry":{"type":"Point","coordinates":[68,49]},"properties":{"name":"Eurasian Steppe","kind":"desert"}}]}